<?xml version="1.0" encoding="UTF-8"?>
<ndm xmlns:xsi="http://www.w3.org/2001/XMLSchema-instance" xsi:noNamespaceSchemaLocation="https://sanaregistry.org/r/ndmxml_unqualified/ndmxml-2.0.0-master-2.0.xsd">
<omm id="CCSDS_OMM_VERS" version="2.0">
<header><CREATION_DATE/><ORIGINATOR/></header><body><segment><metadata><OBJECT_NAME>ORBCOMM FM05</OBJECT_NAME><OBJECT_ID>1997-084F</OBJECT_ID><CENTER_NAME>EARTH</CENTER_NAME><REF_FRAME>TEME</REF_FRAME><TIME_SYSTEM>UTC</TIME_SYSTEM><MEAN_ELEMENT_THEORY>SGP4</MEAN_ELEMENT_THEORY></metadata><data><meanElements><EPOCH>2024-11-01T12:25:18.607008</EPOCH><MEAN_MOTION>14.44257875</MEAN_MOTION><ECCENTRICITY>.000283</ECCENTRICITY><INCLINATION>45.0163</INCLINATION><RA_OF_ASC_NODE>19.9331</RA_OF_ASC_NODE><ARG_OF_PERICENTER>212.0570</ARG_OF_PERICENTER><MEAN_ANOMALY>148.0109</MEAN_ANOMALY></meanElements><tleParameters><EPHEMERIS_TYPE>0</EPHEMERIS_TYPE><CLASSIFICATION_TYPE>U</CLASSIFICATION_TYPE><NORAD_CAT_ID>25117</NORAD_CAT_ID><ELEMENT_SET_NO>999</ELEMENT_SET_NO><REV_AT_EPOCH>40767</REV_AT_EPOCH><BSTAR>.25395E-2</BSTAR><MEAN_MOTION_DOT>.8677E-4</MEAN_MOTION_DOT><MEAN_MOTION_DDOT>0</MEAN_MOTION_DDOT></tleParameters></data></segment></body></omm>
<omm id="CCSDS_OMM_VERS" version="2.0">
<header><CREATION_DATE/><ORIGINATOR/></header><body><segment><metadata><OBJECT_NAME>ORBCOMM FM06</OBJECT_NAME><OBJECT_ID>1997-084G</OBJECT_ID><CENTER_NAME>EARTH</CENTER_NAME><REF_FRAME>TEME</REF_FRAME><TIME_SYSTEM>UTC</TIME_SYSTEM><MEAN_ELEMENT_THEORY>SGP4</MEAN_ELEMENT_THEORY></metadata><data><meanElements><EPOCH>2024-11-01T11:13:40.245888</EPOCH><MEAN_MOTION>14.44402591</MEAN_MOTION><ECCENTRICITY>.0002717</ECCENTRICITY><INCLINATION>45.0157</INCLINATION><RA_OF_ASC_NODE>20.1995</RA_OF_ASC_NODE><ARG_OF_PERICENTER>232.4997</ARG_OF_PERICENTER><MEAN_ANOMALY>142.4410</MEAN_ANOMALY></meanElements><tleParameters><EPHEMERIS_TYPE>0</EPHEMERIS_TYPE><CLASSIFICATION_TYPE>U</CLASSIFICATION_TYPE><NORAD_CAT_ID>25118</NORAD_CAT_ID><ELEMENT_SET_NO>999</ELEMENT_SET_NO><REV_AT_EPOCH>40858</REV_AT_EPOCH><BSTAR>.28585E-2</BSTAR><MEAN_MOTION_DOT>.9817E-4</MEAN_MOTION_DOT><MEAN_MOTION_DDOT>0</MEAN_MOTION_DDOT></tleParameters></data></segment></body></omm>
<omm id="CCSDS_OMM_VERS" version="2.0">
<header><CREATION_DATE/><ORIGINATOR/></header><body><segment><metadata><OBJECT_NAME>ORBCOMM FM07</OBJECT_NAME><OBJECT_ID>1997-084H</OBJECT_ID><CENTER_NAME>EARTH</CENTER_NAME><REF_FRAME>TEME</REF_FRAME><TIME_SYSTEM>UTC</TIME_SYSTEM><MEAN_ELEMENT_THEORY>SGP4</MEAN_ELEMENT_THEORY></metadata><data><meanElements><EPOCH>2024-11-01T11:14:21.194304</EPOCH><MEAN_MOTION>14.44283152</MEAN_MOTION><ECCENTRICITY>.0002951</ECCENTRICITY><INCLINATION>45.0153</INCLINATION><RA_OF_ASC_NODE>20.8610</RA_OF_ASC_NODE><ARG_OF_PERICENTER>196.5277</ARG_OF_PERICENTER><MEAN_ANOMALY>163.5478</MEAN_ANOMALY></meanElements><tleParameters><EPHEMERIS_TYPE>0</EPHEMERIS_TYPE><CLASSIFICATION_TYPE>U</CLASSIFICATION_TYPE><NORAD_CAT_ID>25119</NORAD_CAT_ID><ELEMENT_SET_NO>999</ELEMENT_SET_NO><REV_AT_EPOCH>40857</REV_AT_EPOCH><BSTAR>.27032E-2</BSTAR><MEAN_MOTION_DOT>.9252E-4</MEAN_MOTION_DOT><MEAN_MOTION_DDOT>0</MEAN_MOTION_DDOT></tleParameters></data></segment></body></omm>
<omm id="CCSDS_OMM_VERS" version="2.0">
<header><CREATION_DATE/><ORIGINATOR/></header><body><segment><metadata><OBJECT_NAME>ORBCOMM FM03</OBJECT_NAME><OBJECT_ID>1998-007B</OBJECT_ID><CENTER_NAME>EARTH</CENTER_NAME><REF_FRAME>TEME</REF_FRAME><TIME_SYSTEM>UTC</TIME_SYSTEM><MEAN_ELEMENT_THEORY>SGP4</MEAN_ELEMENT_THEORY></metadata><data><meanElements><EPOCH>2024-11-01T12:02:57.531264</EPOCH><MEAN_MOTION>14.33241997</MEAN_MOTION><ECCENTRICITY>.0048592</ECCENTRICITY><INCLINATION>107.9679</INCLINATION><RA_OF_ASC_NODE>28.2231</RA_OF_ASC_NODE><ARG_OF_PERICENTER>285.4121</ARG_OF_PERICENTER><MEAN_ANOMALY>74.1653</MEAN_ANOMALY></meanElements><tleParameters><EPHEMERIS_TYPE>0</EPHEMERIS_TYPE><CLASSIFICATION_TYPE>U</CLASSIFICATION_TYPE><NORAD_CAT_ID>25158</NORAD_CAT_ID><ELEMENT_SET_NO>999</ELEMENT_SET_NO><REV_AT_EPOCH>39140</REV_AT_EPOCH><BSTAR>.19612E-2</BSTAR><MEAN_MOTION_DOT>.5348E-4</MEAN_MOTION_DOT><MEAN_MOTION_DDOT>0</MEAN_MOTION_DDOT></tleParameters></data></segment></body></omm>
<omm id="CCSDS_OMM_VERS" version="2.0">
<header><CREATION_DATE/><ORIGINATOR/></header><body><segment><metadata><OBJECT_NAME>ORBCOMM FM04</OBJECT_NAME><OBJECT_ID>1998-007C</OBJECT_ID><CENTER_NAME>EARTH</CENTER_NAME><REF_FRAME>TEME</REF_FRAME><TIME_SYSTEM>UTC</TIME_SYSTEM><MEAN_ELEMENT_THEORY>SGP4</MEAN_ELEMENT_THEORY></metadata><data><meanElements><EPOCH>2024-11-01T12:39:52.887744</EPOCH><MEAN_MOTION>14.33511883</MEAN_MOTION><ECCENTRICITY>.0044317</ECCENTRICITY><INCLINATION>107.9663</INCLINATION><RA_OF_ASC_NODE>31.3355</RA_OF_ASC_NODE><ARG_OF_PERICENTER>282.9137</ARG_OF_PERICENTER><MEAN_ANOMALY>76.7055</MEAN_ANOMALY></meanElements><tleParameters><EPHEMERIS_TYPE>0</EPHEMERIS_TYPE><CLASSIFICATION_TYPE>U</CLASSIFICATION_TYPE><NORAD_CAT_ID>25159</NORAD_CAT_ID><ELEMENT_SET_NO>999</ELEMENT_SET_NO><REV_AT_EPOCH>39158</REV_AT_EPOCH><BSTAR>.19986E-2</BSTAR><MEAN_MOTION_DOT>.547E-4</MEAN_MOTION_DOT><MEAN_MOTION_DDOT>0</MEAN_MOTION_DDOT></tleParameters></data></segment></body></omm>
<omm id="CCSDS_OMM_VERS" version="2.0">
<header><CREATION_DATE/><ORIGINATOR/></header><body><segment><metadata><OBJECT_NAME>ORBCOMM FM17</OBJECT_NAME><OBJECT_ID>1998-046A</OBJECT_ID><CENTER_NAME>EARTH</CENTER_NAME><REF_FRAME>TEME</REF_FRAME><TIME_SYSTEM>UTC</TIME_SYSTEM><MEAN_ELEMENT_THEORY>SGP4</MEAN_ELEMENT_THEORY></metadata><data><meanElements><EPOCH>2024-11-01T13:18:25.870176</EPOCH><MEAN_MOTION>14.34079832</MEAN_MOTION><ECCENTRICITY>.0000628</ECCENTRICITY><INCLINATION>44.9935</INCLINATION><RA_OF_ASC_NODE>251.1917</RA_OF_ASC_NODE><ARG_OF_PERICENTER>161.1264</ARG_OF_PERICENTER><MEAN_ANOMALY>198.9606</MEAN_ANOMALY></meanElements><tleParameters><EPHEMERIS_TYPE>0</EPHEMERIS_TYPE><CLASSIFICATION_TYPE>U</CLASSIFICATION_TYPE><NORAD_CAT_ID>25413</NORAD_CAT_ID><ELEMENT_SET_NO>999</ELEMENT_SET_NO><REV_AT_EPOCH>37048</REV_AT_EPOCH><BSTAR>.18162E-2</BSTAR><MEAN_MOTION_DOT>.4987E-4</MEAN_MOTION_DOT><MEAN_MOTION_DDOT>0</MEAN_MOTION_DDOT></tleParameters></data></segment></body></omm>
<omm id="CCSDS_OMM_VERS" version="2.0">
<header><CREATION_DATE/><ORIGINATOR/></header><body><segment><metadata><OBJECT_NAME>ORBCOMM FM18</OBJECT_NAME><OBJECT_ID>1998-046B</OBJECT_ID><CENTER_NAME>EARTH</CENTER_NAME><REF_FRAME>TEME</REF_FRAME><TIME_SYSTEM>UTC</TIME_SYSTEM><MEAN_ELEMENT_THEORY>SGP4</MEAN_ELEMENT_THEORY></metadata><data><meanElements><EPOCH>2024-11-01T08:01:38.068032</EPOCH><MEAN_MOTION>14.37166617</MEAN_MOTION><ECCENTRICITY>.0003915</ECCENTRICITY><INCLINATION>44.9914</INCLINATION><RA_OF_ASC_NODE>175.4219</RA_OF_ASC_NODE><ARG_OF_PERICENTER>206.9793</ARG_OF_PERICENTER><MEAN_ANOMALY>153.0852</MEAN_ANOMALY></meanElements><tleParameters><EPHEMERIS_TYPE>0</EPHEMERIS_TYPE><CLASSIFICATION_TYPE>U</CLASSIFICATION_TYPE><NORAD_CAT_ID>25414</NORAD_CAT_ID><ELEMENT_SET_NO>999</ELEMENT_SET_NO><REV_AT_EPOCH>37145</REV_AT_EPOCH><BSTAR>.25136E-2</BSTAR><MEAN_MOTION_DOT>.7412E-4</MEAN_MOTION_DOT><MEAN_MOTION_DDOT>0</MEAN_MOTION_DDOT></tleParameters></data></segment></body></omm>
<omm id="CCSDS_OMM_VERS" version="2.0">
<header><CREATION_DATE/><ORIGINATOR/></header><body><segment><metadata><OBJECT_NAME>ORBCOMM FM19</OBJECT_NAME><OBJECT_ID>1998-046C</OBJECT_ID><CENTER_NAME>EARTH</CENTER_NAME><REF_FRAME>TEME</REF_FRAME><TIME_SYSTEM>UTC</TIME_SYSTEM><MEAN_ELEMENT_THEORY>SGP4</MEAN_ELEMENT_THEORY></metadata><data><meanElements><EPOCH>2024-11-01T01:44:27.580416</EPOCH><MEAN_MOTION>14.36985477</MEAN_MOTION><ECCENTRICITY>.0002766</ECCENTRICITY><INCLINATION>44.9928</INCLINATION><RA_OF_ASC_NODE>178.3125</RA_OF_ASC_NODE><ARG_OF_PERICENTER>195.0419</ARG_OF_PERICENTER><MEAN_ANOMALY>318.2505</MEAN_ANOMALY></meanElements><tleParameters><EPHEMERIS_TYPE>0</EPHEMERIS_TYPE><CLASSIFICATION_TYPE>U</CLASSIFICATION_TYPE><NORAD_CAT_ID>25415</NORAD_CAT_ID><ELEMENT_SET_NO>999</ELEMENT_SET_NO><REV_AT_EPOCH>37137</REV_AT_EPOCH><BSTAR>.21086E-2</BSTAR><MEAN_MOTION_DOT>.617E-4</MEAN_MOTION_DOT><MEAN_MOTION_DDOT>0</MEAN_MOTION_DDOT></tleParameters></data></segment></body></omm>

</ndm>
