ORBCOMM FM05            
1 25117U 97084F   24306.51757647  .00008677  00000+0  25395-2 0  9994
2 25117  45.0163  19.9331 0002830 212.0570 148.0109 14.44257875407677
ORBCOMM FM06            
1 25118U 97084G   24306.46782692  .00009817  00000+0  28585-2 0  9998
2 25118  45.0157  20.1995 0002717 232.4997 142.4410 14.44402591408585
ORBCOMM FM07            
1 25119U 97084H   24306.46830086  .00009252  00000+0  27032-2 0  9999
2 25119  45.0153  20.8610 0002951 196.5277 163.5478 14.44283152408571
ORBCOMM FM03            
1 25158U 98007B   24306.50205476  .00005348  00000+0  19612-2 0  9999
2 25158 107.9679  28.2231 0048592 285.4121  74.1653 14.33241997391407
ORBCOMM FM04            
1 25159U 98007C   24306.52769546  .00005470  00000+0  19986-2 0  9995
2 25159 107.9663  31.3355 0044317 282.9137  76.7055 14.33511883391580
ORBCOMM FM17            
1 25413U 98046A   24306.55446609  .00004987  00000+0  18162-2 0  9993
2 25413  44.9935 251.1917 0000628 161.1264 198.9606 14.34079832370486
ORBCOMM FM18            
1 25414U 98046B   24306.33446838  .00007412  00000+0  25136-2 0  9999
2 25414  44.9914 175.4219 0003915 206.9793 153.0852 14.37166617371458
ORBCOMM FM19            
1 25415U 98046C   24306.07254144  .00006170  00000+0  21086-2 0  9998
2 25415  44.9928 178.3125 0002766 195.0419 318.2505 14.36985477371371
